{
  "type": "FeatureCollection",
  "features": [
    {
      "type": "Feature",
      "properties": {
        "norad_id": 48859,
        "name": "GPS BIII-5  (PRN 11)",
        "group": "gps-ops",
        "lat": 26.050857339441603,
        "lon": -0.41615908099667304,
        "alt_km": 20240.9721969321,
        "timestamp": "2025-12-17T13:48:37.814032+00:00",
        "meta_object_name": "GPS BIII-5  (PRN 11)",
        "meta_object_id": "2021-054A",
        "meta_epoch": "2025-12-08T04:14:32.423424",
        "meta_mean_motion": 2.00553627,
        "meta_eccentricity": 0.0024678,
        "meta_inclination": 55.2581,
        "meta_ra_of_asc_node": 340.1367,
        "meta_arg_of_pericenter": 233.3994,
        "meta_mean_anomaly": 212.8593,
        "meta_ephemeris_type": 0,
        "meta_classification_type": "U",
        "meta_norad_cat_id": 48859,
        "meta_element_set_no": 999,
        "meta_rev_at_epoch": 3292,
        "meta_bstar": 0,
        "meta_mean_motion_dot": -8.6e-07,
        "meta_mean_motion_ddot": 0,
        "tle_line1": "1 48859U 21054A   25342.17676416 -.00000086  00000+0  00000+0 0  9993",
        "tle_line2": "2 48859  55.2581 340.1367 0024678 233.3994 212.8593  2.00553627 32922"
      },
      "geometry": {
        "type": "Point",
        "coordinates": [
          -0.41615908099667304,
          26.050857339441603
        ]
      }
    },
    {
      "type": "Feature",
      "properties": {
        "norad_id": 55268,
        "name": "GPS BIII-6  (PRN 28)",
        "group": "gps-ops",
        "lat": 52.27802902955159,
        "lon": -139.83937751102127,
        "alt_km": 20174.837248480024,
        "timestamp": "2025-12-17T13:48:37.814044+00:00",
        "meta_object_name": "GPS BIII-6  (PRN 28)",
        "meta_object_id": "2023-009A",
        "meta_epoch": "2025-12-17T05:26:38.724576",
        "meta_mean_motion": 2.00555443,
        "meta_eccentricity": 0.00036765,
        "meta_inclination": 55.1057,
        "meta_ra_of_asc_node": 155.6691,
        "meta_arg_of_pericenter": 356.3023,
        "meta_mean_anomaly": 186.6763,
        "meta_ephemeris_type": 0,
        "meta_classification_type": "U",
        "meta_norad_cat_id": 55268,
        "meta_element_set_no": 999,
        "meta_rev_at_epoch": 2159,
        "meta_bstar": 0,
        "meta_mean_motion_dot": 7.9e-07,
        "meta_mean_motion_ddot": 0,
        "tle_line1": "1 55268U 23009A   25351.22683709  .00000079  00000+0  00000+0 0  9997",
        "tle_line2": "2 55268  55.1057 155.6691 0003676 356.3023 186.6763  2.00555443 21590"
      },
      "geometry": {
        "type": "Point",
        "coordinates": [
          -139.83937751102127,
          52.27802902955159
        ]
      }
    },
    {
      "type": "Feature",
      "properties": {
        "norad_id": 62339,
        "name": "GPS BIII-7  (PRN 01)",
        "group": "gps-ops",
        "lat": 22.307054213336123,
        "lon": 144.78176493270422,
        "alt_km": 20211.270342192896,
        "timestamp": "2025-12-17T13:48:37.814055+00:00",
        "meta_object_name": "GPS BIII-7  (PRN 01)",
        "meta_object_id": "2024-242A",
        "meta_epoch": "2025-12-16T08:50:11.332608",
        "meta_mean_motion": 2.00568131,
        "meta_eccentricity": 0.00124404,
        "meta_inclination": 54.9226,
        "meta_ra_of_asc_node": 341.593,
        "meta_arg_of_pericenter": 345.4157,
        "meta_mean_anomaly": 15.1615,
        "meta_ephemeris_type": 0,
        "meta_classification_type": "U",
        "meta_norad_cat_id": 62339,
        "meta_element_set_no": 999,
        "meta_rev_at_epoch": 759,
        "meta_bstar": 0,
        "meta_mean_motion_dot": -9e-07,
        "meta_mean_motion_ddot": 0,
        "tle_line1": "1 62339U 24242A   25350.36818672 -.00000090  00000+0  00000+0 0  9991",
        "tle_line2": "2 62339  54.9226 341.5930 0012440 345.4157  15.1615  2.00568131  7594"
      },
      "geometry": {
        "type": "Point",
        "coordinates": [
          144.78176493270422,
          22.307054213336123
        ]
      }
    },
    {
      "type": "Feature",
      "properties": {
        "norad_id": 64202,
        "name": "GPS BIII-8  (PRN 21)",
        "group": "gps-ops",
        "lat": -15.015920787246042,
        "lon": 27.685978429871046,
        "alt_km": 20172.4339016962,
        "timestamp": "2025-12-17T13:48:37.814066+00:00",
        "meta_object_name": "GPS BIII-8  (PRN 21)",
        "meta_object_id": "2025-116A",
        "meta_epoch": "2025-12-14T02:46:13.653120",
        "meta_mean_motion": 2.00558299,
        "meta_eccentricity": 0.00056153,
        "meta_inclination": 55.1067,
        "meta_ra_of_asc_node": 38.5851,
        "meta_arg_of_pericenter": 308.147,
        "meta_mean_anomaly": 55.2369,
        "meta_ephemeris_type": 0,
        "meta_classification_type": "U",
        "meta_norad_cat_id": 64202,
        "meta_element_set_no": 999,
        "meta_rev_at_epoch": 416,
        "meta_bstar": 0,
        "meta_mean_motion_dot": -9.6e-07,
        "meta_mean_motion_ddot": 0,
        "tle_line1": "1 64202U 25116A   25348.11543580 -.00000096  00000+0  00000+0 0  9992",
        "tle_line2": "2 64202  55.1067  38.5851 0005615 308.1470  55.2369  2.00558299  4161"
      },
      "geometry": {
        "type": "Point",
        "coordinates": [
          27.685978429871046,
          -15.015920787246042
        ]
      }
    }
  ]
}